{
  "norad_id": 65227,
  "name": "SKYKRAFT-4E",
  "history": [
    {
      "epoch": "2026-03-28T17:33:37.513152Z",
      "apogee_km": 580.9504416963518,
      "perigee_km": 572.3413941135941,
      "latitude_deg": 1.5630865364084016e-06,
      "longitude_deg": 64.42357829337067,
      "height_km": 583.5790157498606,
      "semi_major_axis_km": 6954.782917904973,
      "eccentricity": 0.00061893,
      "inclination_deg": 97.676,
      "raan_deg": 153.9778,
      "arg_perigee_deg": 154.514,
      "mean_anomaly_deg": 205.6388,
      "mean_motion_rev_day": 14.9684694
    },
    {
      "epoch": "2026-03-29T03:11:11.772960Z",
      "apogee_km": 580.9227381946703,
      "perigee_km": 572.32109236825,
      "latitude_deg": 1.2614445792181676e-05,
      "longitude_deg": -79.97090572486272,
      "height_km": 583.5185040270433,
      "semi_major_axis_km": 6954.75891528146,
      "eccentricity": 0.0006184,
      "inclination_deg": 97.676,
      "raan_deg": 154.3714,
      "arg_perigee_deg": 153.5109,
      "mean_anomaly_deg": 206.643,
      "mean_motion_rev_day": 14.96854689
    },
    {
      "epoch": "2026-03-30T03:15:06.483744Z",
      "apogee_km": 580.8543118207408,
      "perigee_km": 572.2402398766735,
      "latitude_deg": -1.2075765987734125e-05,
      "longitude_deg": -80.9531859584057,
      "height_km": 583.3292234414507,
      "semi_major_axis_km": 6954.684275848706,
      "eccentricity": 0.0006193,
      "inclination_deg": 97.676,
      "raan_deg": 155.3554,
      "arg_perigee_deg": 150.1407,
      "mean_anomaly_deg": 210.0169,
      "mean_motion_rev_day": 14.96878786
    },
    {
      "epoch": "2026-03-30T03:15:06.484608Z",
      "apogee_km": 580.8544509144249,
      "perigee_km": 572.2401007829885,
      "latitude_deg": -1.3198221835470923e-05,
      "longitude_deg": -80.95318941779885,
      "height_km": 583.3293440941692,
      "semi_major_axis_km": 6954.684275848706,
      "eccentricity": 0.00061932,
      "inclination_deg": 97.676,
      "raan_deg": 155.3554,
      "arg_perigee_deg": 150.1407,
      "mean_anomaly_deg": 210.0169,
      "mean_motion_rev_day": 14.96878786
    },
    {
      "epoch": "2026-03-30T14:28:55.539840Z",
      "apogee_km": 580.851408491264,
      "perigee_km": 572.171450879142,
      "latitude_deg": -3.5237418986254593e-06,
      "longitude_deg": 110.59080127619899,
      "height_km": 583.2634400391495,
      "semi_major_axis_km": 6954.648429685203,
      "eccentricity": 0.00062404,
      "inclination_deg": 97.6761,
      "raan_deg": 155.815,
      "arg_perigee_deg": 148.632,
      "mean_anomaly_deg": 211.5275,
      "mean_motion_rev_day": 14.96890359
    },
    {
      "epoch": "2026-03-30T17:41:26.644416Z",
      "apogee_km": 580.844310143153,
      "perigee_km": 572.1590791557273,
      "latitude_deg": -4.690719850278041e-05,
      "longitude_deg": 62.46053067708889,
      "height_km": 583.2401943503096,
      "semi_major_axis_km": 6954.6386946494395,
      "eccentricity": 0.00062442,
      "inclination_deg": 97.6761,
      "raan_deg": 155.9461,
      "arg_perigee_deg": 148.2364,
      "mean_anomaly_deg": 211.9235,
      "mean_motion_rev_day": 14.96893502
    },
    {
      "epoch": "2026-03-31T03:18:59.792256Z",
      "apogee_km": 580.8139003600272,
      "perigee_km": 572.1289853365988,
      "latitude_deg": 6.356876438730506e-05,
      "longitude_deg": -81.92912024837936,
      "height_km": 583.1756331463524,
      "semi_major_axis_km": 6954.608442848313,
      "eccentricity": 0.0006244,
      "inclination_deg": 97.6761,
      "raan_deg": 156.3399,
      "arg_perigee_deg": 147.3939,
      "mean_anomaly_deg": 212.767,
      "mean_motion_rev_day": 14.96903269
    },
    {
      "epoch": "2026-04-01T03:22:51.883392Z",
      "apogee_km": 580.7677015552899,
      "perigee_km": 572.0482321667387,
      "latitude_deg": 2.0602217150133575e-05,
      "longitude_deg": -82.9001521608044,
      "height_km": 583.0378712085775,
      "semi_major_axis_km": 6954.5449668610145,
      "eccentricity": 0.00062689,
      "inclination_deg": 97.6758,
      "raan_deg": 157.3242,
      "arg_perigee_deg": 145.2959,
      "mean_anomaly_deg": 214.8673,
      "mean_motion_rev_day": 14.96923763
    },
    {
      "epoch": "2026-04-02T14:40:30.291744Z",
      "apogee_km": 580.6854305121906,
      "perigee_km": 571.9573070810156,
      "latitude_deg": 2.4239853576708494e-05,
      "longitude_deg": 107.6840408675162,
      "height_km": 582.794683996787,
      "semi_major_axis_km": 6954.458368796602,
      "eccentricity": 0.00062752,
      "inclination_deg": 97.6754,
      "raan_deg": 158.7679,
      "arg_perigee_deg": 141.7713,
      "mean_anomaly_deg": 218.3955,
      "mean_motion_rev_day": 14.96951723
    },
    {
      "epoch": "2026-04-03T17:56:49.421472Z",
      "apogee_km": 580.5745954413987,
      "perigee_km": 571.8413290378185,
      "latitude_deg": -6.902641329185983e-05,
      "longitude_deg": 58.600125942876076,
      "height_km": 582.5382665813366,
      "semi_major_axis_km": 6954.344962239608,
      "eccentricity": 0.0006279,
      "inclination_deg": 97.6751,
      "raan_deg": 159.8837,
      "arg_perigee_deg": 138.8023,
      "mean_anomaly_deg": 221.3673,
      "mean_motion_rev_day": 14.9698834
    }
  ]
}